[{"OBJECT_NAME":"STARLINK-4706","OBJECT_ID":"2022-111G","EPOCH":"2026-03-09T21:10:57.364032","MEAN_MOTION":15.0883862,"ECCENTRICITY":0.00013209,"INCLINATION":53.2176,"RA_OF_ASC_NODE":273.3706,"ARG_OF_PERICENTER":97.5207,"MEAN_ANOMALY":262.5936,"EPHEMERIS_TYPE":0,"CLASSIFICATION_TYPE":"U","NORAD_CAT_ID":53779,"ELEMENT_SET_NO":999,"REV_AT_EPOCH":19372,"BSTAR":9.3680046e-5,"MEAN_MOTION_DOT":1.203e-5,"MEAN_MOTION_DDOT":0},{"OBJECT_NAME":"YUNYAO-1 47","OBJECT_ID":"2025-059E","EPOCH":"2026-03-09T22:46:15.708288","MEAN_MOTION":15.10508558,"ECCENTRICITY":0.00172664,"INCLINATION":97.6066,"RA_OF_ASC_NODE":250.9227,"ARG_OF_PERICENTER":135.6694,"MEAN_ANOMALY":224.5922,"EPHEMERIS_TYPE":0,"CLASSIFICATION_TYPE":"U","NORAD_CAT_ID":63348,"ELEMENT_SET_NO":999,"REV_AT_EPOCH":5331,"BSTAR":0.00029014568,"MEAN_MOTION_DOT":4.732e-5,"MEAN_MOTION_DDOT":0}]
